[
    {
        "Altitude(m)": 611965.1912335107,
        "Argument of Periapsis(deg)": 0.0,
        "Eccentricity": 0.0,
        "Inclination(deg)": 60.0,
        "Latitude(deg)": 59.14017938064363,
        "Longitude(deg)": -11.030363967372425,
        "Mean Anomaly(deg)": 81.8182,
        "RAAN(deg)": 15.0,
        "Satellite Name": "Test1 71",
        "Satellite Number": 71,
        "Semi-Major Axis(m)": 6980739.136638005,
        "Time(s)": 0
    },
    {
        "Altitude(m)": 611995.8174310428,
        "Argument of Periapsis(deg)": 0.00010418945913296404,
        "Eccentricity": 0.0,
        "Inclination(deg)": 60.0,
        "Latitude(deg)": 59.28328151875953,
        "Longitude(deg)": -9.897002197350737,
        "Mean Anomaly(deg)": 82.43830614546184,
        "RAAN(deg)": 14.999579950860259,
        "Satellite Name": "Test1 71",
        "Satellite Number": 71,
        "Semi-Major Axis(m)": 6980739.136638005,
        "Time(s)": 10
    }
]